{
  "type": "FeatureCollection",
  "features": [
    {
      "type": "Feature",
      "properties": {
        "norad_id": 66467,
        "name": "STARLINK-35682",
        "group": "last-30-days",
        "lat": 18.938670895144348,
        "lon": 133.35140954518985,
        "alt_km": 413.6987117605777,
        "timestamp": "2025-12-05T18:53:12.096203+00:00",
        "meta_object_name": "STARLINK-35682",
        "meta_object_id": "2025-262M",
        "meta_epoch": "2025-12-05T06:00:02.000160",
        "meta_mean_motion": 15.51204922,
        "meta_eccentricity": 0.00012295,
        "meta_inclination": 43,
        "meta_ra_of_asc_node": 114.8869,
        "meta_arg_of_pericenter": 267.279,
        "meta_mean_anomaly": 0.2878,
        "meta_ephemeris_type": 0,
        "meta_classification_type": "U",
        "meta_norad_cat_id": 66467,
        "meta_element_set_no": 999,
        "meta_rev_at_epoch": 443,
        "meta_bstar": -0.016747347,
        "meta_mean_motion_dot": -0.009238,
        "meta_mean_motion_ddot": 0,
        "tle_line1": "1 66467U 25262M   25339.25002315 -.00923800  00000+0 -16747-1 0  9995",
        "tle_line2": "2 66467  43.0000 114.8869 0001229 267.2790   0.2878 15.51204922  4439"
      },
      "geometry": {
        "type": "Point",
        "coordinates": [
          133.35140954518985,
          18.938670895144348
        ]
      }
    },
    {
      "type": "Feature",
      "properties": {
        "norad_id": 66468,
        "name": "STARLINK-35331",
        "group": "last-30-days",
        "lat": 22.522352080016628,
        "lon": 138.15356195260483,
        "alt_km": 413.10853169811435,
        "timestamp": "2025-12-05T18:53:12.096213+00:00",
        "meta_object_name": "STARLINK-35331",
        "meta_object_id": "2025-262N",
        "meta_epoch": "2025-12-05T06:00:02.000160",
        "meta_mean_motion": 15.51202706,
        "meta_eccentricity": 0.0001105,
        "meta_inclination": 43.0001,
        "meta_ra_of_asc_node": 114.8722,
        "meta_arg_of_pericenter": 269.2091,
        "meta_mean_anomaly": 4.1039,
        "meta_ephemeris_type": 0,
        "meta_classification_type": "U",
        "meta_norad_cat_id": 66468,
        "meta_element_set_no": 999,
        "meta_rev_at_epoch": 443,
        "meta_bstar": -0.016573086,
        "meta_mean_motion_dot": -0.00914847,
        "meta_mean_motion_ddot": 0,
        "tle_line1": "1 66468U 25262N   25339.25002315 -.00914847  00000+0 -16573-1 0  9994",
        "tle_line2": "2 66468  43.0001 114.8722 0001105 269.2091   4.1039 15.51202706  4438"
      },
      "geometry": {
        "type": "Point",
        "coordinates": [
          138.15356195260483,
          22.522352080016628
        ]
      }
    },
    {
      "type": "Feature",
      "properties": {
        "norad_id": 66469,
        "name": "STARLINK-35451",
        "group": "last-30-days",
        "lat": 25.943634104279674,
        "lon": 143.18812083186066,
        "alt_km": 412.6532674033815,
        "timestamp": "2025-12-05T18:53:12.096224+00:00",
        "meta_object_name": "STARLINK-35451",
        "meta_object_id": "2025-262P",
        "meta_epoch": "2025-12-05T06:00:02.000160",
        "meta_mean_motion": 15.5120954,
        "meta_eccentricity": 9.231e-05,
        "meta_inclination": 43,
        "meta_ra_of_asc_node": 114.8568,
        "meta_arg_of_pericenter": 275.3799,
        "meta_mean_anomaly": 3.6853,
        "meta_ephemeris_type": 0,
        "meta_classification_type": "U",
        "meta_norad_cat_id": 66469,
        "meta_element_set_no": 999,
        "meta_rev_at_epoch": 443,
        "meta_bstar": -0.017104613,
        "meta_mean_motion_dot": -0.00942,
        "meta_mean_motion_ddot": 0,
        "tle_line1": "1 66469U 25262P   25339.25002315 -.00942000  00000+0 -17105-1 0  9999",
        "tle_line2": "2 66469  43.0000 114.8568 0000923 275.3799   3.6853 15.51209540  4437"
      },
      "geometry": {
        "type": "Point",
        "coordinates": [
          143.18812083186066,
          25.943634104279674
        ]
      }
    },
    {
      "type": "Feature",
      "properties": {
        "norad_id": 66470,
        "name": "STARLINK-35655",
        "group": "last-30-days",
        "lat": 23.68507821046903,
        "lon": 139.80801935634113,
        "alt_km": 412.90508968230006,
        "timestamp": "2025-12-05T18:53:12.096234+00:00",
        "meta_object_name": "STARLINK-35655",
        "meta_object_id": "2025-262Q",
        "meta_epoch": "2025-12-05T06:00:02.000160",
        "meta_mean_motion": 15.51200674,
        "meta_eccentricity": 0.00010932,
        "meta_inclination": 43,
        "meta_ra_of_asc_node": 114.8674,
        "meta_arg_of_pericenter": 271.687,
        "meta_mean_anomaly": 3.5446,
        "meta_ephemeris_type": 0,
        "meta_classification_type": "U",
        "meta_norad_cat_id": 66470,
        "meta_element_set_no": 999,
        "meta_rev_at_epoch": 443,
        "meta_bstar": -0.016537861,
        "meta_mean_motion_dot": -0.0091299,
        "meta_mean_motion_ddot": 0,
        "tle_line1": "1 66470U 25262Q   25339.25002315 -.00912990  00000+0 -16538-1 0  9995",
        "tle_line2": "2 66470  43.0000 114.8674 0001093 271.6870   3.5446 15.51200674  4431"
      },
      "geometry": {
        "type": "Point",
        "coordinates": [
          139.80801935634113,
          23.68507821046903
        ]
      }
    },
    {
      "type": "Feature",
      "properties": {
        "norad_id": 66471,
        "name": "STARLINK-35569",
        "group": "last-30-days",
        "lat": 24.816497957447773,
        "lon": 141.47183747793844,
        "alt_km": 412.74882895848896,
        "timestamp": "2025-12-05T18:53:12.096244+00:00",
        "meta_object_name": "STARLINK-35569",
        "meta_object_id": "2025-262R",
        "meta_epoch": "2025-12-05T06:00:02.000160",
        "meta_mean_motion": 15.51204058,
        "meta_eccentricity": 8.731e-05,
        "meta_inclination": 43,
        "meta_ra_of_asc_node": 114.8624,
        "meta_arg_of_pericenter": 281.1716,
        "meta_mean_anomaly": 355.985,
        "meta_ephemeris_type": 0,
        "meta_classification_type": "U",
        "meta_norad_cat_id": 66471,
        "meta_element_set_no": 999,
        "meta_rev_at_epoch": 443,
        "meta_bstar": -0.0171164,
        "meta_mean_motion_dot": -0.00942416,
        "meta_mean_motion_ddot": 0,
        "tle_line1": "1 66471U 25262R   25339.25002315 -.00942416  00000+0 -17116-1 0  9995",
        "tle_line2": "2 66471  43.0000 114.8624 0000873 281.1716 355.9850 15.51204058  4430"
      },
      "geometry": {
        "type": "Point",
        "coordinates": [
          141.47183747793844,
          24.816497957447773
        ]
      }
    },
    {
      "type": "Feature",
      "properties": {
        "norad_id": 66472,
        "name": "STARLINK-35567",
        "group": "last-30-days",
        "lat": 27.04769400374481,
        "lon": 144.93482868888663,
        "alt_km": 412.46822428337236,
        "timestamp": "2025-12-05T18:53:12.096256+00:00",
        "meta_object_name": "STARLINK-35567",
        "meta_object_id": "2025-262S",
        "meta_epoch": "2025-12-05T06:00:02.000160",
        "meta_mean_motion": 15.51204083,
        "meta_eccentricity": 8.966e-05,
        "meta_inclination": 43.0001,
        "meta_ra_of_asc_node": 114.8525,
        "meta_arg_of_pericenter": 277.904,
        "meta_mean_anomaly": 3.085,
        "meta_ephemeris_type": 0,
        "meta_classification_type": "U",
        "meta_norad_cat_id": 66472,
        "meta_element_set_no": 999,
        "meta_rev_at_epoch": 443,
        "meta_bstar": -0.017076198,
        "meta_mean_motion_dot": -0.00940386,
        "meta_mean_motion_ddot": 0,
        "tle_line1": "1 66472U 25262S   25339.25002315 -.00940386  00000+0 -17076-1 0  9995",
        "tle_line2": "2 66472  43.0001 114.8525 0000896 277.9040   3.0850 15.51204083  4439"
      },
      "geometry": {
        "type": "Point",
        "coordinates": [
          144.93482868888663,
          27.04769400374481
        ]
      }
    },
    {
      "type": "Feature",
      "properties": {
        "norad_id": 66473,
        "name": "STARLINK-35568",
        "group": "last-30-days",
        "lat": 28.142682095495843,
        "lon": 146.73787830808388,
        "alt_km": 412.39780316896486,
        "timestamp": "2025-12-05T18:53:12.096266+00:00",
        "meta_object_name": "STARLINK-35568",
        "meta_object_id": "2025-262T",
        "meta_epoch": "2025-12-05T06:00:02.000160",
        "meta_mean_motion": 15.51201962,
        "meta_eccentricity": 0.00012049,
        "meta_inclination": 42.9998,
        "meta_ra_of_asc_node": 114.8477,
        "meta_arg_of_pericenter": 267.2604,
        "meta_mean_anomaly": 15.6399,
        "meta_ephemeris_type": 0,
        "meta_classification_type": "U",
        "meta_norad_cat_id": 66473,
        "meta_element_set_no": 999,
        "meta_rev_at_epoch": 443,
        "meta_bstar": -0.016589783,
        "meta_mean_motion_dot": -0.00915694,
        "meta_mean_motion_ddot": 0,
        "tle_line1": "1 66473U 25262T   25339.25002315 -.00915694  00000+0 -16590-1 0  9990",
        "tle_line2": "2 66473  42.9998 114.8477 0001204 267.2604  15.6399 15.51201962  4431"
      },
      "geometry": {
        "type": "Point",
        "coordinates": [
          146.73787830808388,
          28.142682095495843
        ]
      }
    }
  ]
}